start=new Date('2022-08-31T00:00:00.000Z').valueOf();
sats=[{"MEAN_MOTION":"15.08846682","ECCENTRICITY":"0.00015990","TIME_SYSTEM":"UTC","REV_AT_EPOCH":"3455","COUNTRY_CODE":"US","OBJECT_TYPE":"PAYLOAD","MEAN_ANOMALY":"293.1345","LAUNCH_DATE":"2022-01-19","PERIAPSIS":"538.619","MEAN_MOTION_DOT":"-0.00000034","RCS_SIZE":"LARGE","OBJECT_NAME":"STARLINK-3173","OBJECT_ID":"2022-005H","ARG_OF_PERICENTER":"66.9815","PERIOD":"95.437","CLASSIFICATION_TYPE":"U","TLE_LINE2":"2 51111  53.2187 307.5393 0001599  66.9815 293.1345 15.08846682 34558","SITE":"AFETR","FILE":"3551880","DECAY_DATE":null,"ELEMENT_SET_NO":"999","INCLINATION":"53.2187","BSTAR":"0.00001595500000","NORAD_CAT_ID":"51111","GP_ID":"211331228","MEAN_MOTION_DDOT":"0.0000000000000","EPHEMERIS_TYPE":"0","CENTER_NAME":"EARTH","MEAN_ELEMENT_THEORY":"SGP4","RA_OF_ASC_NODE":"307.5393","APOAPSIS":"540.831","EPOCH":"2022-08-30T11:59:49.422048","SEMIMAJOR_AXIS":"6917.860","REF_FRAME":"TEME","TLE_LINE1":"1 51111U 22005H   22242.49987757 -.00000034  00000-0  15955-4 0  9993"},{"ECCENTRICITY":"0.00018130","MEAN_MOTION":"15.08841750","REV_AT_EPOCH":"3457","TIME_SYSTEM":"UTC","LAUNCH_DATE":"2022-01-19","MEAN_MOTION_DOT":"-0.00000415","PERIAPSIS":"538.486","RCS_SIZE":"LARGE","MEAN_ANOMALY":"307.9495","OBJECT_TYPE":"PAYLOAD","COUNTRY_CODE":"US","SITE":"AFETR","TLE_LINE2":"2 51112  53.2195 307.1495 0001813  52.1661 307.9495 15.08841750 34575","CLASSIFICATION_TYPE":"U","OBJECT_NAME":"STARLINK-3374","OBJECT_ID":"2022-005J","PERIOD":"95.437","ARG_OF_PERICENTER":"52.1661","BSTAR":"-0.00000794110000","NORAD_CAT_ID":"51112","INCLINATION":"53.2195","DECAY_DATE":null,"FILE":"3552179","ELEMENT_SET_NO":"999","MEAN_ELEMENT_THEORY":"SGP4","RA_OF_ASC_NODE":"307.1495","CENTER_NAME":"EARTH","MEAN_MOTION_DDOT":"0.0000000000000","GP_ID":"211360938","EPHEMERIS_TYPE":"0","SEMIMAJOR_AXIS":"6917.875","EPOCH":"2022-08-30T14:07:00.379776","APOAPSIS":"540.994","TLE_LINE1":"1 51112U 22005J   22242.58819884 -.00000415  00000-0 -79411-5 0  9991","REF_FRAME":"TEME"},{"RCS_SIZE":"LARGE","PERIAPSIS":"538.657","LAUNCH_DATE":"2022-01-19","MEAN_MOTION_DOT":"0.00000960","MEAN_ANOMALY":"309.3896","OBJECT_TYPE":"PAYLOAD","COUNTRY_CODE":"US","SITE":"AFETR","TLE_LINE2":"2 51113  53.2175 307.7808 0001576  50.7235 309.3896 15.08839298 34547","CLASSIFICATION_TYPE":"U","ARG_OF_PERICENTER":"50.7235","PERIOD":"95.438","OBJECT_ID":"2022-005K","OBJECT_NAME":"STARLINK-3372","ECCENTRICITY":"0.00015760","MEAN_MOTION":"15.08839298","REV_AT_EPOCH":"3454","TIME_SYSTEM":"UTC","SEMIMAJOR_AXIS":"6917.883","EPOCH":"2022-08-30T10:40:21.115776","APOAPSIS":"540.838","TLE_LINE1":"1 51113U 22005K   22242.44468884  .00000960  00000-0  78387-4 0  9990","REF_FRAME":"TEME","NORAD_CAT_ID":"51113","BSTAR":"0.00007838700000","INCLINATION":"53.2175","ELEMENT_SET_NO":"999","DECAY_DATE":null,"FILE":"3551880","RA_OF_ASC_NODE":"307.7808","MEAN_ELEMENT_THEORY":"SGP4","CENTER_NAME":"EARTH","EPHEMERIS_TYPE":"0","MEAN_MOTION_DDOT":"0.0000000000000","GP_ID":"211329734"},{"OBJECT_TYPE":"PAYLOAD","COUNTRY_CODE":"US","RCS_SIZE":"LARGE","LAUNCH_DATE":"2022-01-19","PERIAPSIS":"538.540","MEAN_MOTION_DOT":"-0.00000003","MEAN_ANOMALY":"306.3134","CLASSIFICATION_TYPE":"U","ARG_OF_PERICENTER":"53.8020","PERIOD":"95.438","OBJECT_NAME":"STARLINK-3375","OBJECT_ID":"2022-005L","SITE":"AFETR","TLE_LINE2":"2 51114  53.2173 307.7199 0001747  53.8020 306.3134 15.08838979 34553","MEAN_MOTION":"15.08838979","ECCENTRICITY":"0.00017470","TIME_SYSTEM":"UTC","REV_AT_EPOCH":"3455","APOAPSIS":"540.957","SEMIMAJOR_AXIS":"6917.884","EPOCH":"2022-08-30T11:06:50.548320","REF_FRAME":"TEME","TLE_LINE1":"1 51114U 22005L   22242.46308505 -.00000003  00000-0  17916-4 0  9996","ELEMENT_SET_NO":"999","FILE":"3551880","DECAY_DATE":null,"NORAD_CAT_ID":"51114","BSTAR":"0.00001791600000","INCLINATION":"53.2173","CENTER_NAME":"EARTH","EPHEMERIS_TYPE":"0","GP_ID":"211330481","MEAN_MOTION_DDOT":"0.0000000000000","RA_OF_ASC_NODE":"307.7199","MEAN_ELEMENT_THEORY":"SGP4"},{"REV_AT_EPOCH":"3454","TIME_SYSTEM":"UTC","ECCENTRICITY":"0.00016150","MEAN_MOTION":"15.08840760","SITE":"AFETR","TLE_LINE2":"2 51115  53.2175 307.8124 0001615  58.7384 301.3766 15.08840760 34542","CLASSIFICATION_TYPE":"U","ARG_OF_PERICENTER":"58.7384","PERIOD":"95.438","OBJECT_ID":"2022-005M","OBJECT_NAME":"STARLINK-3397","RCS_SIZE":"LARGE","LAUNCH_DATE":"2022-01-19","PERIAPSIS":"538.626","MEAN_MOTION_DOT":"0.00000081","MEAN_ANOMALY":"301.3766","OBJECT_TYPE":"PAYLOAD","COUNTRY_CODE":"US","RA_OF_ASC_NODE":"307.8124","MEAN_ELEMENT_THEORY":"SGP4","CENTER_NAME":"EARTH","EPHEMERIS_TYPE":"0","MEAN_MOTION_DDOT":"0.0000000000000","GP_ID":"211330728","NORAD_CAT_ID":"51115","BSTAR":"0.00002321000000","INCLINATION":"53.2175","ELEMENT_SET_NO":"999","FILE":"3551880","DECAY_DATE":null,"TLE_LINE1":"1 51115U 22005M   22242.43732025  .00000081  00000-0  23210-4 0  9991","REF_FRAME":"TEME","SEMIMAJOR_AXIS":"6917.878","EPOCH":"2022-08-30T10:29:44.469600","APOAPSIS":"540.860"},{"MEAN_ELEMENT_THEORY":"SGP4","RA_OF_ASC_NODE":"307.1551","CENTER_NAME":"EARTH","EPHEMERIS_TYPE":"0","MEAN_MOTION_DDOT":"0.0000000000000","GP_ID":"211361439","BSTAR":"0.00004545200000","NORAD_CAT_ID":"51116","INCLINATION":"53.2180","ELEMENT_SET_NO":"999","FILE":"3552179","DECAY_DATE":null,"TLE_LINE1":"1 51116U 22005N   22242.58451221  .00000436  00000-0  45452-4 0  9990","REF_FRAME":"TEME","SEMIMAJOR_AXIS":"6917.854","EPOCH":"2022-08-30T14:01:41.854944","APOAPSIS":"540.829","REV_AT_EPOCH":"3456","TIME_SYSTEM":"UTC","ECCENTRICITY":"0.00016040","MEAN_MOTION":"15.08848493","SITE":"AFETR","TLE_LINE2":"2 51116  53.2180 307.1551 0001604  51.9001 308.2135 15.08848493 34564","CLASSIFICATION_TYPE":"U","ARG_OF_PERICENTER":"51.9001","PERIOD":"95.437","OBJECT_NAME":"STARLINK-3243","OBJECT_ID":"2022-005N","RCS_SIZE":"LARGE","LAUNCH_DATE":"2022-01-19","MEAN_MOTION_DOT":"0.00000436","PERIAPSIS":"538.610","MEAN_ANOMALY":"308.2135","OBJECT_TYPE":"PAYLOAD","COUNTRY_CODE":"US"},{"TLE_LINE1":"1 51117U 22005P   22242.62133148 -.00001582  00000-0 -81322-4 0  9992","REF_FRAME":"TEME","EPOCH":"2022-08-30T14:54:43.039872","SEMIMAJOR_AXIS":"6917.909","APOAPSIS":"540.900","MEAN_ELEMENT_THEORY":"SGP4","RA_OF_ASC_NODE":"306.9921","GP_ID":"211361189","MEAN_MOTION_DDOT":"0.0000000000000","EPHEMERIS_TYPE":"0","CENTER_NAME":"EARTH","INCLINATION":"53.2181","NORAD_CAT_ID":"51117","BSTAR":"-0.00008132200000","DECAY_DATE":null,"FILE":"3552179","ELEMENT_SET_NO":"999","TLE_LINE2":"2 51117  53.2181 306.9921 0001628  56.2988 303.8159 15.08830564 34570","SITE":"AFETR","OBJECT_NAME":"STARLINK-3391","OBJECT_ID":"2022-005P","PERIOD":"95.438","ARG_OF_PERICENTER":"56.2988","CLASSIFICATION_TYPE":"U","MEAN_ANOMALY":"303.8159","MEAN_MOTION_DOT":"-0.00001582","LAUNCH_DATE":"2022-01-19","PERIAPSIS":"538.648","RCS_SIZE":"LARGE","COUNTRY_CODE":"US","OBJECT_TYPE":"PAYLOAD","REV_AT_EPOCH":"3457","TIME_SYSTEM":"UTC","ECCENTRICITY":"0.00016280","MEAN_MOTION":"15.08830564"},{"APOAPSIS":"540.987","EPOCH":"2022-08-30T10:35:02.532192","SEMIMAJOR_AXIS":"6917.883","REF_FRAME":"TEME","TLE_LINE1":"1 51118U 22005Q   22242.44100153 -.00000399  00000-0 -69507-5 0  9990","ELEMENT_SET_NO":"999","FILE":"3551880","DECAY_DATE":null,"INCLINATION":"53.2181","NORAD_CAT_ID":"51118","BSTAR":"-0.00000695070000","EPHEMERIS_TYPE":"0","GP_ID":"211330982","MEAN_MOTION_DDOT":"0.0000000000000","CENTER_NAME":"EARTH","MEAN_ELEMENT_THEORY":"SGP4","RA_OF_ASC_NODE":"307.7981","COUNTRY_CODE":"US","OBJECT_TYPE":"PAYLOAD","MEAN_ANOMALY":"310.4296","RCS_SIZE":"LARGE","LAUNCH_DATE":"2022-01-19","MEAN_MOTION_DOT":"-0.00000399","PERIAPSIS":"538.510","PERIOD":"95.438","ARG_OF_PERICENTER":"49.6852","OBJECT_ID":"2022-005Q","OBJECT_NAME":"STARLINK-3394","CLASSIFICATION_TYPE":"U","TLE_LINE2":"2 51118  53.2181 307.7981 0001790  49.6852 310.4296 15.08839036 34548","SITE":"AFETR","MEAN_MOTION":"15.08839036","ECCENTRICITY":"0.00017900","TIME_SYSTEM":"UTC","REV_AT_EPOCH":"3454"},{"TLE_LINE1":"1 51119U 22005R   22242.55140467  .00000201  00000-0  30704-4 0  9991","REF_FRAME":"TEME","EPOCH":"2022-08-30T13:14:01.363488","SEMIMAJOR_AXIS":"6917.906","APOAPSIS":"540.984","RA_OF_ASC_NODE":"307.3180","MEAN_ELEMENT_THEORY":"SGP4","GP_ID":"211362191","MEAN_MOTION_DDOT":"0.0000000000000","EPHEMERIS_TYPE":"0","CENTER_NAME":"EARTH","INCLINATION":"53.2181","BSTAR":"0.00003070400000","NORAD_CAT_ID":"51119","DECAY_DATE":null,"FILE":"3552179","ELEMENT_SET_NO":"999","TLE_LINE2":"2 51119  53.2181 307.3180 0001753  56.4387 303.6772 15.08831467 34569","SITE":"AFETR","OBJECT_NAME":"STARLINK-3390","OBJECT_ID":"2022-005R","PERIOD":"95.438","ARG_OF_PERICENTER":"56.4387","CLASSIFICATION_TYPE":"U","MEAN_ANOMALY":"303.6772","MEAN_MOTION_DOT":"0.00000201","LAUNCH_DATE":"2022-01-19","PERIAPSIS":"538.559","RCS_SIZE":"LARGE","COUNTRY_CODE":"US","OBJECT_TYPE":"PAYLOAD","REV_AT_EPOCH":"3456","TIME_SYSTEM":"UTC","ECCENTRICITY":"0.00017530","MEAN_MOTION":"15.08831467"},{"SITE":"AFETR","TLE_LINE2":"2 51120  53.2170 307.6536 0001811  46.0722 314.0420 15.08843201 34554","CLASSIFICATION_TYPE":"U","OBJECT_NAME":"STARLINK-3398","OBJECT_ID":"2022-005S","PERIOD":"95.437","ARG_OF_PERICENTER":"46.0722","LAUNCH_DATE":"2022-01-19","PERIAPSIS":"538.483","MEAN_MOTION_DOT":"0.00000171","RCS_SIZE":"LARGE","MEAN_ANOMALY":"314.0420","OBJECT_TYPE":"PAYLOAD","COUNTRY_CODE":"US","REV_AT_EPOCH":"3455","TIME_SYSTEM":"UTC","ECCENTRICITY":"0.00018110","MEAN_MOTION":"15.08843201","TLE_LINE1":"1 51120U 22005S   22242.47779584  .00000171  00000-0  28858-4 0  9995","REF_FRAME":"TEME","SEMIMAJOR_AXIS":"6917.871","EPOCH":"2022-08-30T11:28:01.560576","APOAPSIS":"540.988","MEAN_ELEMENT_THEORY":"SGP4","RA_OF_ASC_NODE":"307.6536","CENTER_NAME":"EARTH","GP_ID":"211329485","MEAN_MOTION_DDOT":"0.0000000000000","EPHEMERIS_TYPE":"0","NORAD_CAT_ID":"51120","BSTAR":"0.00002885800000","INCLINATION":"53.2170","DECAY_DATE":null,"FILE":"3551880","ELEMENT_SET_NO":"999"}];
